[{"OBJECT_NAME":"STARLINK-31896","OBJECT_ID":"2024-097S","EPOCH":"2026-03-09T22:18:07.007328","MEAN_MOTION":15.27570955,"ECCENTRICITY":0.00022971,"INCLINATION":43.0039,"RA_OF_ASC_NODE":272.9882,"ARG_OF_PERICENTER":270.2749,"MEAN_ANOMALY":89.7839,"EPHEMERIS_TYPE":0,"CLASSIFICATION_TYPE":"U","NORAD_CAT_ID":59851,"ELEMENT_SET_NO":999,"REV_AT_EPOCH":10195,"BSTAR":-2.0240417e-5,"MEAN_MOTION_DOT":-8.19e-6,"MEAN_MOTION_DDOT":0},{"OBJECT_NAME":"TEVEL2-8","OBJECT_ID":"2025-052AF","EPOCH":"2026-03-09T16:02:08.542752","MEAN_MOTION":15.28392908,"ECCENTRICITY":0.0008031,"INCLINATION":97.4055,"RA_OF_ASC_NODE":324.2923,"ARG_OF_PERICENTER":124.9191,"MEAN_ANOMALY":235.2804,"EPHEMERIS_TYPE":0,"CLASSIFICATION_TYPE":"U","NORAD_CAT_ID":63239,"ELEMENT_SET_NO":999,"REV_AT_EPOCH":5480,"BSTAR":0.00069303947,"MEAN_MOTION_DOT":0.0001913,"MEAN_MOTION_DDOT":0}]
