STARLINK-31896          
1 59851U 24097S   26068.92924777 -.00000819  00000+0 -20240-4 0  9990
2 59851  43.0039 272.9882 0002297 270.2749  89.7839 15.27570955101954
TEVEL2-8                
1 63239U 25052AF  26068.66815443  .00019130  00000+0  69304-3 0  9994
2 63239  97.4055 324.2923 0008031 124.9191 235.2804 15.28392908 54807
